[{"OBJECT_NAME":"ONEWEB-0445","OBJECT_ID":"2022-012T","EPOCH":"2026-03-02T23:32:10.107456","MEAN_MOTION":13.10370669,"ECCENTRICITY":0.0002093,"INCLINATION":87.8771,"RA_OF_ASC_NODE":57.3978,"ARG_OF_PERICENTER":87.7319,"MEAN_ANOMALY":272.4048,"EPHEMERIS_TYPE":0,"CLASSIFICATION_TYPE":"U","NORAD_CAT_ID":51639,"ELEMENT_SET_NO":999,"REV_AT_EPOCH":19543,"BSTAR":0.0014448,"MEAN_MOTION_DOT":5.17e-6,"MEAN_MOTION_DDOT":0},{"OBJECT_NAME":"ONEWEB-0446","OBJECT_ID":"2022-012U","EPOCH":"2026-03-03T00:48:38.155680","MEAN_MOTION":13.10377004,"ECCENTRICITY":0.0002003,"INCLINATION":87.8764,"RA_OF_ASC_NODE":57.4249,"ARG_OF_PERICENTER":86.2691,"MEAN_ANOMALY":273.8666,"EPHEMERIS_TYPE":0,"CLASSIFICATION_TYPE":"U","NORAD_CAT_ID":51640,"ELEMENT_SET_NO":999,"REV_AT_EPOCH":19542,"BSTAR":0.00073274,"MEAN_MOTION_DOT":2.68e-6,"MEAN_MOTION_DDOT":0},{"OBJECT_NAME":"ONEWEB-0448","OBJECT_ID":"2022-012V","EPOCH":"2026-03-02T23:05:51.791136","MEAN_MOTION":13.10375349,"ECCENTRICITY":0.0001788,"INCLINATION":87.8766,"RA_OF_ASC_NODE":57.4374,"ARG_OF_PERICENTER":88.3557,"MEAN_ANOMALY":271.7775,"EPHEMERIS_TYPE":0,"CLASSIFICATION_TYPE":"U","NORAD_CAT_ID":51641,"ELEMENT_SET_NO":999,"REV_AT_EPOCH":19538,"BSTAR":0.0012556,"MEAN_MOTION_DOT":4.51e-6,"MEAN_MOTION_DDOT":0},{"OBJECT_NAME":"ONEWEB-0449","OBJECT_ID":"2022-012W","EPOCH":"2026-03-02T23:13:02.215200","MEAN_MOTION":13.10374371,"ECCENTRICITY":0.0001635,"INCLINATION":87.8771,"RA_OF_ASC_NODE":57.4141,"ARG_OF_PERICENTER":73.3151,"MEAN_ANOMALY":286.8156,"EPHEMERIS_TYPE":0,"CLASSIFICATION_TYPE":"U","NORAD_CAT_ID":51642,"ELEMENT_SET_NO":999,"REV_AT_EPOCH":19539,"BSTAR":0.0016923,"MEAN_MOTION_DOT":6.03e-6,"MEAN_MOTION_DDOT":0},{"OBJECT_NAME":"ONEWEB-0451","OBJECT_ID":"2022-012X","EPOCH":"2026-03-02T21:33:25.784640","MEAN_MOTION":13.17649136,"ECCENTRICITY":0.000179,"INCLINATION":87.9147,"RA_OF_ASC_NODE":26.9404,"ARG_OF_PERICENTER":79.0091,"MEAN_ANOMALY":281.1242,"EPHEMERIS_TYPE":0,"CLASSIFICATION_TYPE":"U","NORAD_CAT_ID":51643,"ELEMENT_SET_NO":999,"REV_AT_EPOCH":19966,"BSTAR":9.5175e-6,"MEAN_MOTION_DOT":1.7e-7,"MEAN_MOTION_DDOT":0},{"OBJECT_NAME":"ONEWEB-0452","OBJECT_ID":"2022-012Y","EPOCH":"2026-03-02T21:31:00.370848","MEAN_MOTION":13.17649342,"ECCENTRICITY":0.00016,"INCLINATION":87.9137,"RA_OF_ASC_NODE":26.9878,"ARG_OF_PERICENTER":79.0263,"MEAN_ANOMALY":281.1048,"EPHEMERIS_TYPE":0,"CLASSIFICATION_TYPE":"U","NORAD_CAT_ID":51644,"ELEMENT_SET_NO":999,"REV_AT_EPOCH":19967,"BSTAR":6.53e-5,"MEAN_MOTION_DOT":3.8e-7,"MEAN_MOTION_DDOT":0},{"OBJECT_NAME":"ONEWEB-0456","OBJECT_ID":"2022-012AA","EPOCH":"2026-03-03T01:17:19.783680","MEAN_MOTION":13.10370837,"ECCENTRICITY":0.0001831,"INCLINATION":87.8779,"RA_OF_ASC_NODE":57.375,"ARG_OF_PERICENTER":92.8476,"MEAN_ANOMALY":267.2861,"EPHEMERIS_TYPE":0,"CLASSIFICATION_TYPE":"U","NORAD_CAT_ID":51646,"ELEMENT_SET_NO":999,"REV_AT_EPOCH":19544,"BSTAR":0.0018556,"MEAN_MOTION_DOT":6.6e-6,"MEAN_MOTION_DDOT":0},{"OBJECT_NAME":"ONEWEB-0457","OBJECT_ID":"2022-012AB","EPOCH":"2026-03-03T00:43:51.667968","MEAN_MOTION":13.1037901,"ECCENTRICITY":0.000213,"INCLINATION":87.8766,"RA_OF_ASC_NODE":57.4129,"ARG_OF_PERICENTER":77.5629,"MEAN_ANOMALY":282.5736,"EPHEMERIS_TYPE":0,"CLASSIFICATION_TYPE":"U","NORAD_CAT_ID":51647,"ELEMENT_SET_NO":999,"REV_AT_EPOCH":19544,"BSTAR":0.00020215,"MEAN_MOTION_DOT":8.3e-7,"MEAN_MOTION_DDOT":0},{"OBJECT_NAME":"ONEWEB-0458","OBJECT_ID":"2022-012AC","EPOCH":"2026-03-03T01:14:57.096672","MEAN_MOTION":13.10371875,"ECCENTRICITY":0.0001709,"INCLINATION":87.8766,"RA_OF_ASC_NODE":57.3891,"ARG_OF_PERICENTER":87.0374,"MEAN_ANOMALY":273.0949,"EPHEMERIS_TYPE":0,"CLASSIFICATION_TYPE":"U","NORAD_CAT_ID":51648,"ELEMENT_SET_NO":999,"REV_AT_EPOCH":19540,"BSTAR":0.0018244,"MEAN_MOTION_DOT":6.5e-6,"MEAN_MOTION_DDOT":0},{"OBJECT_NAME":"ONEWEB-0461","OBJECT_ID":"2022-012AD","EPOCH":"2026-03-03T01:41:16.295136","MEAN_MOTION":13.17649782,"ECCENTRICITY":0.0002026,"INCLINATION":87.9156,"RA_OF_ASC_NODE":26.9206,"ARG_OF_PERICENTER":80.8034,"MEAN_ANOMALY":279.3327,"EPHEMERIS_TYPE":0,"CLASSIFICATION_TYPE":"U","NORAD_CAT_ID":51649,"ELEMENT_SET_NO":999,"REV_AT_EPOCH":19991,"BSTAR":-0.00014569,"MEAN_MOTION_DOT":-4.4e-7,"MEAN_MOTION_DDOT":0},{"OBJECT_NAME":"ONEWEB-0463","OBJECT_ID":"2022-012AE","EPOCH":"2026-03-02T21:35:51.795456","MEAN_MOTION":13.17648711,"ECCENTRICITY":0.0002004,"INCLINATION":87.914,"RA_OF_ASC_NODE":26.988,"ARG_OF_PERICENTER":81.0589,"MEAN_ANOMALY":279.0769,"EPHEMERIS_TYPE":0,"CLASSIFICATION_TYPE":"U","NORAD_CAT_ID":51650,"ELEMENT_SET_NO":999,"REV_AT_EPOCH":19967,"BSTAR":-2.7089e-6,"MEAN_MOTION_DOT":1.2e-7,"MEAN_MOTION_DDOT":0},{"OBJECT_NAME":"ONEWEB-0464","OBJECT_ID":"2022-012AF","EPOCH":"2026-03-03T01:10:09.768288","MEAN_MOTION":13.1037339,"ECCENTRICITY":0.0001757,"INCLINATION":87.876,"RA_OF_ASC_NODE":57.4187,"ARG_OF_PERICENTER":95.4977,"MEAN_ANOMALY":264.635,"EPHEMERIS_TYPE":0,"CLASSIFICATION_TYPE":"U","NORAD_CAT_ID":51651,"ELEMENT_SET_NO":999,"REV_AT_EPOCH":19542,"BSTAR":0.0019905,"MEAN_MOTION_DOT":7.08e-6,"MEAN_MOTION_DDOT":0},{"OBJECT_NAME":"ONEWEB-0468","OBJECT_ID":"2022-012AG","EPOCH":"2026-03-03T01:19:42.825792","MEAN_MOTION":13.10370158,"ECCENTRICITY":0.0001658,"INCLINATION":87.8761,"RA_OF_ASC_NODE":57.4117,"ARG_OF_PERICENTER":97.7193,"MEAN_ANOMALY":262.4122,"EPHEMERIS_TYPE":0,"CLASSIFICATION_TYPE":"U","NORAD_CAT_ID":51652,"ELEMENT_SET_NO":999,"REV_AT_EPOCH":19540,"BSTAR":0.0017597,"MEAN_MOTION_DOT":6.27e-6,"MEAN_MOTION_DDOT":0},{"OBJECT_NAME":"ONEWEB-0473","OBJECT_ID":"2022-012AH","EPOCH":"2026-03-02T23:08:14.963712","MEAN_MOTION":13.10375618,"ECCENTRICITY":0.0001712,"INCLINATION":87.8764,"RA_OF_ASC_NODE":57.4315,"ARG_OF_PERICENTER":86.8812,"MEAN_ANOMALY":273.2511,"EPHEMERIS_TYPE":0,"CLASSIFICATION_TYPE":"U","NORAD_CAT_ID":51653,"ELEMENT_SET_NO":999,"REV_AT_EPOCH":19539,"BSTAR":0.0014957,"MEAN_MOTION_DOT":5.35e-6,"MEAN_MOTION_DDOT":0},{"OBJECT_NAME":"ONEWEB-0474","OBJECT_ID":"2022-012AJ","EPOCH":"2026-03-03T00:46:14.940768","MEAN_MOTION":13.1037593,"ECCENTRICITY":0.0001674,"INCLINATION":87.8774,"RA_OF_ASC_NODE":57.3924,"ARG_OF_PERICENTER":95.075,"MEAN_ANOMALY":265.0569,"EPHEMERIS_TYPE":0,"CLASSIFICATION_TYPE":"U","NORAD_CAT_ID":51654,"ELEMENT_SET_NO":999,"REV_AT_EPOCH":19539,"BSTAR":0.00030636,"MEAN_MOTION_DOT":1.2e-6,"MEAN_MOTION_DDOT":0},{"OBJECT_NAME":"ONEWEB-0475","OBJECT_ID":"2022-012AK","EPOCH":"2026-03-02T21:52:52.168224","MEAN_MOTION":13.17648573,"ECCENTRICITY":0.0001244,"INCLINATION":87.9139,"RA_OF_ASC_NODE":26.9773,"ARG_OF_PERICENTER":92.8999,"MEAN_ANOMALY":267.2275,"EPHEMERIS_TYPE":0,"CLASSIFICATION_TYPE":"U","NORAD_CAT_ID":51655,"ELEMENT_SET_NO":999,"REV_AT_EPOCH":19969,"BSTAR":-2.7234e-6,"MEAN_MOTION_DOT":1.2e-7,"MEAN_MOTION_DDOT":0},{"OBJECT_NAME":"ONEWEB-0490","OBJECT_ID":"2022-138A","EPOCH":"2026-03-03T03:25:29.688672","MEAN_MOTION":13.19725591,"ECCENTRICITY":0.0001697,"INCLINATION":87.9246,"RA_OF_ASC_NODE":326.0871,"ARG_OF_PERICENTER":86.0998,"MEAN_ANOMALY":274.0329,"EPHEMERIS_TYPE":0,"CLASSIFICATION_TYPE":"U","NORAD_CAT_ID":54113,"ELEMENT_SET_NO":999,"REV_AT_EPOCH":16284,"BSTAR":0.00018057,"MEAN_MOTION_DOT":8.5e-7,"MEAN_MOTION_DDOT":0},{"OBJECT_NAME":"ONEWEB-0492","OBJECT_ID":"2022-138B","EPOCH":"2026-03-03T04:01:53.154912","MEAN_MOTION":13.19726035,"ECCENTRICITY":0.0001824,"INCLINATION":87.924,"RA_OF_ASC_NODE":326.0906,"ARG_OF_PERICENTER":85.168,"MEAN_ANOMALY":274.9661,"EPHEMERIS_TYPE":0,"CLASSIFICATION_TYPE":"U","NORAD_CAT_ID":54114,"ELEMENT_SET_NO":999,"REV_AT_EPOCH":16285,"BSTAR":0.00017653,"MEAN_MOTION_DOT":8.4e-7,"MEAN_MOTION_DDOT":0},{"OBJECT_NAME":"ONEWEB-0495","OBJECT_ID":"2022-138C","EPOCH":"2026-03-03T03:30:02.204640","MEAN_MOTION":13.19727198,"ECCENTRICITY":0.0001643,"INCLINATION":87.9237,"RA_OF_ASC_NODE":326.0962,"ARG_OF_PERICENTER":104.7876,"MEAN_ANOMALY":255.3439,"EPHEMERIS_TYPE":0,"CLASSIFICATION_TYPE":"U","NORAD_CAT_ID":54115,"ELEMENT_SET_NO":999,"REV_AT_EPOCH":16283,"BSTAR":0.00023136,"MEAN_MOTION_DOT":1.06e-6,"MEAN_MOTION_DDOT":0},{"OBJECT_NAME":"ONEWEB-0497","OBJECT_ID":"2022-138D","EPOCH":"2026-03-03T03:48:14.119200","MEAN_MOTION":13.19725715,"ECCENTRICITY":0.0001718,"INCLINATION":87.924,"RA_OF_ASC_NODE":326.0845,"ARG_OF_PERICENTER":82.8646,"MEAN_ANOMALY":277.2682,"EPHEMERIS_TYPE":0,"CLASSIFICATION_TYPE":"U","NORAD_CAT_ID":54116,"ELEMENT_SET_NO":999,"REV_AT_EPOCH":16282,"BSTAR":0.00025805,"MEAN_MOTION_DOT":1.16e-6,"MEAN_MOTION_DDOT":0},{"OBJECT_NAME":"ONEWEB-0499","OBJECT_ID":"2022-138E","EPOCH":"2026-03-03T03:24:21.291840","MEAN_MOTION":13.19725083,"ECCENTRICITY":0.0001503,"INCLINATION":87.9239,"RA_OF_ASC_NODE":326.0977,"ARG_OF_PERICENTER":80.8326,"MEAN_ANOMALY":279.2976,"EPHEMERIS_TYPE":0,"CLASSIFICATION_TYPE":"U","NORAD_CAT_ID":54117,"ELEMENT_SET_NO":999,"REV_AT_EPOCH":16283,"BSTAR":0.00013672,"MEAN_MOTION_DOT":6.8e-7,"MEAN_MOTION_DDOT":0},{"OBJECT_NAME":"ONEWEB-0500","OBJECT_ID":"2022-138F","EPOCH":"2026-03-03T03:27:45.834336","MEAN_MOTION":13.19726408,"ECCENTRICITY":0.0001818,"INCLINATION":87.924,"RA_OF_ASC_NODE":326.0868,"ARG_OF_PERICENTER":79.8779,"MEAN_ANOMALY":280.2559,"EPHEMERIS_TYPE":0,"CLASSIFICATION_TYPE":"U","NORAD_CAT_ID":54118,"ELEMENT_SET_NO":999,"REV_AT_EPOCH":16284,"BSTAR":0.00026968,"MEAN_MOTION_DOT":1.21e-6,"MEAN_MOTION_DDOT":0},{"OBJECT_NAME":"ONEWEB-0501","OBJECT_ID":"2022-138G","EPOCH":"2026-03-03T04:10:59.477664","MEAN_MOTION":13.19726252,"ECCENTRICITY":0.0001567,"INCLINATION":87.9241,"RA_OF_ASC_NODE":326.0817,"ARG_OF_PERICENTER":93.4809,"MEAN_ANOMALY":266.6503,"EPHEMERIS_TYPE":0,"CLASSIFICATION_TYPE":"U","NORAD_CAT_ID":54119,"ELEMENT_SET_NO":999,"REV_AT_EPOCH":16282,"BSTAR":0.00015855,"MEAN_MOTION_DOT":7.6e-7,"MEAN_MOTION_DDOT":0},{"OBJECT_NAME":"ONEWEB-0502","OBJECT_ID":"2022-138H","EPOCH":"2026-03-03T03:50:31.070112","MEAN_MOTION":13.19710287,"ECCENTRICITY":0.0001552,"INCLINATION":87.9249,"RA_OF_ASC_NODE":326.0691,"ARG_OF_PERICENTER":80.3981,"MEAN_ANOMALY":279.7327,"EPHEMERIS_TYPE":0,"CLASSIFICATION_TYPE":"U","NORAD_CAT_ID":54120,"ELEMENT_SET_NO":999,"REV_AT_EPOCH":16284,"BSTAR":0.008217,"MEAN_MOTION_DOT":3.303e-5,"MEAN_MOTION_DDOT":0}]
